CCSDS_OMM_VERS = 2.0
CREATION_DATE  = 
ORIGINATOR     = 

OBJECT_NAME    = GUOWANG GROUP 20 OBJECT G
OBJECT_ID      = 2026-047G
CENTER_NAME    = EARTH
REF_FRAME      = TEME
TIME_SYSTEM    = UTC
MEAN_ELEMENT_THEORY = SGP/SGP4

EPOCH          = 2026-03-15T22:14:00.775104
MEAN_MOTION    = 14.06345852
ECCENTRICITY   = .000763
INCLINATION    = 50.0119
RA_OF_ASC_NODE = 45.0444
ARG_OF_PERICENTER = 283.0341
MEAN_ANOMALY   = 76.9712

EPHEMERIS_TYPE = 0
CLASSIFICATION_TYPE = U
NORAD_CAT_ID   = 68135
ELEMENT_SET_NO = 999
REV_AT_EPOCH   = 44
BSTAR          = .54739E-5
MEAN_MOTION_DOT = -.143E-5
MEAN_MOTION_DDOT = 0

CCSDS_OMM_VERS = 2.0
CREATION_DATE  = 
ORIGINATOR     = 

OBJECT_NAME    = GUOWANG GROUP 20 OBJECT H
OBJECT_ID      = 2026-047H
CENTER_NAME    = EARTH
REF_FRAME      = TEME
TIME_SYSTEM    = UTC
MEAN_ELEMENT_THEORY = SGP/SGP4

EPOCH          = 2026-03-16T16:59:11.485248
MEAN_MOTION    = 14.06444187
ECCENTRICITY   = .0007787
INCLINATION    = 50.0091
RA_OF_ASC_NODE = 41.8417
ARG_OF_PERICENTER = 290.7831
MEAN_ANOMALY   = 69.2240

EPHEMERIS_TYPE = 0
CLASSIFICATION_TYPE = U
NORAD_CAT_ID   = 68136
ELEMENT_SET_NO = 999
REV_AT_EPOCH   = 54
BSTAR          = .70604E-5
MEAN_MOTION_DOT = -.141E-5
MEAN_MOTION_DDOT = 0

CCSDS_OMM_VERS = 2.0
CREATION_DATE  = 
ORIGINATOR     = 

OBJECT_NAME    = GUOWANG GROUP 20 OBJECT J
OBJECT_ID      = 2026-047J
CENTER_NAME    = EARTH
REF_FRAME      = TEME
TIME_SYSTEM    = UTC
MEAN_ELEMENT_THEORY = SGP/SGP4

EPOCH          = 2026-03-15T22:13:18.045984
MEAN_MOTION    = 14.06573417
ECCENTRICITY   = .0006248
INCLINATION    = 50.0081
RA_OF_ASC_NODE = 45.0389
ARG_OF_PERICENTER = 285.2816
MEAN_ANOMALY   = 74.7399

EPHEMERIS_TYPE = 0
CLASSIFICATION_TYPE = U
NORAD_CAT_ID   = 68137
ELEMENT_SET_NO = 999
REV_AT_EPOCH   = 44
BSTAR          = .49816E-5
MEAN_MOTION_DOT = -.144E-5
MEAN_MOTION_DDOT = 0

CCSDS_OMM_VERS = 2.0
CREATION_DATE  = 
ORIGINATOR     = 

OBJECT_NAME    = CZ-8A R/B
OBJECT_ID      = 2026-047K
CENTER_NAME    = EARTH
REF_FRAME      = TEME
TIME_SYSTEM    = UTC
MEAN_ELEMENT_THEORY = SGP/SGP4

EPOCH          = 2026-03-16T21:42:15.122016
MEAN_MOTION    = 14.12227789
ECCENTRICITY   = .0044741
INCLINATION    = 49.9544
RA_OF_ASC_NODE = 40.8361
ARG_OF_PERICENTER = 163.2705
MEAN_ANOMALY   = 196.9689

EPHEMERIS_TYPE = 0
CLASSIFICATION_TYPE = U
NORAD_CAT_ID   = 68138
ELEMENT_SET_NO = 999
REV_AT_EPOCH   = 57
BSTAR          = -.43361E-4
MEAN_MOTION_DOT = -.236E-5
MEAN_MOTION_DDOT = 0

CCSDS_OMM_VERS = 2.0
CREATION_DATE  = 
ORIGINATOR     = 

OBJECT_NAME    = SHIYAN-30 03
OBJECT_ID      = 2026-048A
CENTER_NAME    = EARTH
REF_FRAME      = TEME
TIME_SYSTEM    = UTC
MEAN_ELEMENT_THEORY = SGP/SGP4

EPOCH          = 2026-03-16T17:35:22.508160
MEAN_MOTION    = 14.92818854
ECCENTRICITY   = .0004685
INCLINATION    = 34.9995
RA_OF_ASC_NODE = 101.8291
ARG_OF_PERICENTER = 332.5792
MEAN_ANOMALY   = 27.4665

EPHEMERIS_TYPE = 0
CLASSIFICATION_TYPE = U
NORAD_CAT_ID   = 68139
ELEMENT_SET_NO = 999
REV_AT_EPOCH   = 55
BSTAR          = .24181E-3
MEAN_MOTION_DOT = .2523E-4
MEAN_MOTION_DDOT = 0

CCSDS_OMM_VERS = 2.0
CREATION_DATE  = 
ORIGINATOR     = 

OBJECT_NAME    = SHIYAN-30 04
OBJECT_ID      = 2026-048B
CENTER_NAME    = EARTH
REF_FRAME      = TEME
TIME_SYSTEM    = UTC
MEAN_ELEMENT_THEORY = SGP/SGP4

EPOCH          = 2026-03-16T17:36:24.125184
MEAN_MOTION    = 14.92503291
ECCENTRICITY   = .0004363
INCLINATION    = 34.9910
RA_OF_ASC_NODE = 101.8385
ARG_OF_PERICENTER = 326.1868
MEAN_ANOMALY   = 33.8558

EPHEMERIS_TYPE = 0
CLASSIFICATION_TYPE = U
NORAD_CAT_ID   = 68140
ELEMENT_SET_NO = 999
REV_AT_EPOCH   = 55
BSTAR          = .21116E-3
MEAN_MOTION_DOT = .2182E-4
MEAN_MOTION_DDOT = 0

CCSDS_OMM_VERS = 2.0
CREATION_DATE  = 
ORIGINATOR     = 

OBJECT_NAME    = CZ-2D R/B
OBJECT_ID      = 2026-048C
CENTER_NAME    = EARTH
REF_FRAME      = TEME
TIME_SYSTEM    = UTC
MEAN_ELEMENT_THEORY = SGP/SGP4

EPOCH          = 2026-03-16T19:01:46.922880
MEAN_MOTION    = 14.95522426
ECCENTRICITY   = .0015313
INCLINATION    = 35.1292
RA_OF_ASC_NODE = 101.5720
ARG_OF_PERICENTER = 26.0233
MEAN_ANOMALY   = 334.1243

EPHEMERIS_TYPE = 0
CLASSIFICATION_TYPE = U
NORAD_CAT_ID   = 68141
ELEMENT_SET_NO = 999
REV_AT_EPOCH   = 56
BSTAR          = .13479E-3
MEAN_MOTION_DOT = .1494E-4
MEAN_MOTION_DDOT = 0

CCSDS_OMM_VERS = 2.0
CREATION_DATE  = 
ORIGINATOR     = 

OBJECT_NAME    = YAOGAN-50 02
OBJECT_ID      = 2026-051A
CENTER_NAME    = EARTH
REF_FRAME      = TEME
TIME_SYSTEM    = UTC
MEAN_ELEMENT_THEORY = SGP/SGP4

EPOCH          = 2026-03-16T16:05:34.496160
MEAN_MOTION    = 14.16075402
ECCENTRICITY   = .0148508
INCLINATION    = 141.9996
RA_OF_ASC_NODE = 239.7951
ARG_OF_PERICENTER = 128.5083
MEAN_ANOMALY   = 232.9054

EPHEMERIS_TYPE = 0
CLASSIFICATION_TYPE = U
NORAD_CAT_ID   = 68196
ELEMENT_SET_NO = 999
REV_AT_EPOCH   = 16
BSTAR          = .30372E-4
MEAN_MOTION_DOT = .272E-5
MEAN_MOTION_DDOT = 0

CCSDS_OMM_VERS = 2.0
CREATION_DATE  = 
ORIGINATOR     = 

OBJECT_NAME    = CZ-6A R/B
OBJECT_ID      = 2026-051B
CENTER_NAME    = EARTH
REF_FRAME      = TEME
TIME_SYSTEM    = UTC
MEAN_ELEMENT_THEORY = SGP/SGP4

EPOCH          = 2026-03-16T20:18:50.861664
MEAN_MOTION    = 14.56351721
ECCENTRICITY   = .0185602
INCLINATION    = 142.0310
RA_OF_ASC_NODE = 241.1321
ARG_OF_PERICENTER = 101.1577
MEAN_ANOMALY   = 261.0087

EPHEMERIS_TYPE = 0
CLASSIFICATION_TYPE = U
NORAD_CAT_ID   = 68197
ELEMENT_SET_NO = 999
REV_AT_EPOCH   = 20
BSTAR          = .99382E-4
MEAN_MOTION_DOT = .869E-5
MEAN_MOTION_DDOT = 0

