GUOWANG GROUP 20 OBJECT*
1 68135U 26047G   26074.92639786 -.00000143  00000+0  54739-5 0  9992
2 68135  50.0119  45.0444 0007630 283.0341  76.9712 14.06345852   447
GUOWANG GROUP 20 OBJECT*
1 68136U 26047H   26075.70777182 -.00000141  00000+0  70604-5 0  9990
2 68136  50.0091  41.8417 0007787 290.7831  69.2240 14.06444187   546
GUOWANG GROUP 20 OBJECT*
1 68137U 26047J   26074.92590331 -.00000144  00000+0  49816-5 0  9997
2 68137  50.0081  45.0389 0006248 285.2816  74.7399 14.06573417   447
CZ-8A R/B               
1 68138U 26047K   26075.90434169 -.00000236  00000+0 -43361-4 0  9994
2 68138  49.9544  40.8361 0044741 163.2705 196.9689 14.12227789   572
SHIYAN-30 03            
1 68139U 26048A   26075.73289940  .00002523  00000+0  24181-3 0  9999
2 68139  34.9995 101.8291 0004685 332.5792  27.4665 14.92818854   554
SHIYAN-30 04            
1 68140U 26048B   26075.73361256  .00002182  00000+0  21116-3 0  9998
2 68140  34.9910 101.8385 0004363 326.1868  33.8558 14.92503291   551
CZ-2D R/B               
1 68141U 26048C   26075.79290420  .00001494  00000+0  13479-3 0  9997
2 68141  35.1292 101.5720 0015313  26.0233 334.1243 14.95522426   560
YAOGAN-50 02            
1 68196U 26051A   26075.67053815  .00000272  00000+0  30372-4 0  9998
2 68196 141.9996 239.7951 0148508 128.5083 232.9054 14.16075402   162
CZ-6A R/B               
1 68197U 26051B   26075.84642201  .00000869  00000+0  99382-4 0  9999
2 68197 142.0310 241.1321 0185602 101.1577 261.0087 14.56351721   203
